{
  "type": "FeatureCollection",
  "features": [
    {
      "type": "Feature",
      "properties": {
        "norad_id": 29985,
        "name": "FENGYUN 1C DEB",
        "group": "fengyun-1c-debris",
        "lat": -0.8075542113989548,
        "lon": -166.2896112986007,
        "alt_km": 840.6470270994178,
        "timestamp": "2025-12-25T03:55:56.630839+00:00",
        "meta_object_name": "FENGYUN 1C DEB",
        "meta_object_id": "1999-025LK",
        "meta_epoch": "2025-12-24T15:41:46.436352",
        "meta_mean_motion": 14.10326076,
        "meta_eccentricity": 0.0028705,
        "meta_inclination": 98.71,
        "meta_ra_of_asc_node": 13.3404,
        "meta_arg_of_pericenter": 174.977,
        "meta_mean_anomaly": 298.5794,
        "meta_ephemeris_type": 0,
        "meta_classification_type": "U",
        "meta_norad_cat_id": 29985,
        "meta_element_set_no": 999,
        "meta_rev_at_epoch": 97516,
        "meta_bstar": 6.1762e-05,
        "meta_mean_motion_dot": 6.8e-07,
        "meta_mean_motion_ddot": 0,
        "tle_line1": "1 29985U 99025LK  25358.65400968  .00000068  00000+0  61762-4 0  9998",
        "tle_line2": "2 29985  98.7100  13.3404 0028705 174.9770 298.5794 14.10326076975164"
      },
      "geometry": {
        "type": "Point",
        "coordinates": [
          -166.2896112986007,
          -0.8075542113989548
        ]
      }
    },
    {
      "type": "Feature",
      "properties": {
        "norad_id": 29986,
        "name": "FENGYUN 1C DEB",
        "group": "fengyun-1c-debris",
        "lat": -75.70590757293725,
        "lon": 108.33528586161243,
        "alt_km": 788.4172652276711,
        "timestamp": "2025-12-25T03:55:56.630849+00:00",
        "meta_object_name": "FENGYUN 1C DEB",
        "meta_object_id": "1999-025LL",
        "meta_epoch": "2025-12-24T04:52:31.370304",
        "meta_mean_motion": 14.29301167,
        "meta_eccentricity": 0.00230619,
        "meta_inclination": 99.3974,
        "meta_ra_of_asc_node": 66.7595,
        "meta_arg_of_pericenter": 322.415,
        "meta_mean_anomaly": 58.0133,
        "meta_ephemeris_type": 0,
        "meta_classification_type": "U",
        "meta_norad_cat_id": 29986,
        "meta_element_set_no": 999,
        "meta_rev_at_epoch": 97671,
        "meta_bstar": 0.0016075655,
        "meta_mean_motion_dot": 4.054e-05,
        "meta_mean_motion_ddot": 0,
        "tle_line1": "1 29986U 99025LL  25358.20314086  .00004054  00000+0  16076-2 0  9990",
        "tle_line2": "2 29986  99.3974  66.7595 0023061 322.4150  58.0133 14.29301167976718"
      },
      "geometry": {
        "type": "Point",
        "coordinates": [
          108.33528586161243,
          -75.70590757293725
        ]
      }
    },
    {
      "type": "Feature",
      "properties": {
        "norad_id": 29987,
        "name": "FENGYUN 1C DEB",
        "group": "fengyun-1c-debris",
        "lat": -57.47571312712413,
        "lon": -94.67152819120312,
        "alt_km": 863.8624983356003,
        "timestamp": "2025-12-25T03:55:56.630860+00:00",
        "meta_object_name": "FENGYUN 1C DEB",
        "meta_object_id": "1999-025LM",
        "meta_epoch": "2025-12-24T06:42:02.556864",
        "meta_mean_motion": 14.14641063,
        "meta_eccentricity": 0.00785833,
        "meta_inclination": 98.8977,
        "meta_ra_of_asc_node": 250.2257,
        "meta_arg_of_pericenter": 199.9887,
        "meta_mean_anomaly": 277.8307,
        "meta_ephemeris_type": 0,
        "meta_classification_type": "U",
        "meta_norad_cat_id": 29987,
        "meta_element_set_no": 999,
        "meta_rev_at_epoch": 96536,
        "meta_bstar": 0.0023215884,
        "meta_mean_motion_dot": 4.556e-05,
        "meta_mean_motion_ddot": 0,
        "tle_line1": "1 29987U 99025LM  25358.27919626  .00004556  00000+0  23216-2 0  9990",
        "tle_line2": "2 29987  98.8977 250.2257 0078583 199.9887 277.8307 14.14641063965363"
      },
      "geometry": {
        "type": "Point",
        "coordinates": [
          -94.67152819120312,
          -57.47571312712413
        ]
      }
    },
    {
      "type": "Feature",
      "properties": {
        "norad_id": 29988,
        "name": "FENGYUN 1C DEB",
        "group": "fengyun-1c-debris",
        "lat": 53.75375227374942,
        "lon": -64.47506778304387,
        "alt_km": 788.2329165896217,
        "timestamp": "2025-12-25T03:55:56.630870+00:00",
        "meta_object_name": "FENGYUN 1C DEB",
        "meta_object_id": "1999-025LN",
        "meta_epoch": "2025-12-24T18:08:18.159072",
        "meta_mean_motion": 14.50524175,
        "meta_eccentricity": 0.0120039,
        "meta_inclination": 98.6952,
        "meta_ra_of_asc_node": 103.0548,
        "meta_arg_of_pericenter": 341.6151,
        "meta_mean_anomaly": 173.1141,
        "meta_ephemeris_type": 0,
        "meta_classification_type": "U",
        "meta_norad_cat_id": 29988,
        "meta_element_set_no": 999,
        "meta_rev_at_epoch": 98241,
        "meta_bstar": 0.0015476,
        "meta_mean_motion_dot": 6.601e-05,
        "meta_mean_motion_ddot": 0,
        "tle_line1": "1 29988U 99025LN  25358.75576573  .00006601  00000+0  15476-2 0  9996",
        "tle_line2": "2 29988  98.6952 103.0548 0120039 341.6151 173.1141 14.50524175982410"
      },
      "geometry": {
        "type": "Point",
        "coordinates": [
          -64.47506778304387,
          53.75375227374942
        ]
      }
    },
    {
      "type": "Feature",
      "properties": {
        "norad_id": 29989,
        "name": "FENGYUN 1C DEB",
        "group": "fengyun-1c-debris",
        "lat": -62.554265785486216,
        "lon": -5.297872086855313,
        "alt_km": 910.6037036553889,
        "timestamp": "2025-12-25T03:55:56.630880+00:00",
        "meta_object_name": "FENGYUN 1C DEB",
        "meta_object_id": "1999-025LP",
        "meta_epoch": "2025-12-24T20:07:39.335808",
        "meta_mean_motion": 14.15825926,
        "meta_eccentricity": 0.0123851,
        "meta_inclination": 98.6692,
        "meta_ra_of_asc_node": 337.3025,
        "meta_arg_of_pericenter": 160.9729,
        "meta_mean_anomaly": 277.6289,
        "meta_ephemeris_type": 0,
        "meta_classification_type": "U",
        "meta_norad_cat_id": 29989,
        "meta_element_set_no": 999,
        "meta_rev_at_epoch": 97782,
        "meta_bstar": 0.00012566,
        "meta_mean_motion_dot": 2.24e-06,
        "meta_mean_motion_ddot": 0,
        "tle_line1": "1 29989U 99025LP  25358.83864972  .00000224  00000+0  12566-3 0  9992",
        "tle_line2": "2 29989  98.6692 337.3025 0123851 160.9729 277.6289 14.15825926977823"
      },
      "geometry": {
        "type": "Point",
        "coordinates": [
          -5.297872086855313,
          -62.554265785486216
        ]
      }
    },
    {
      "type": "Feature",
      "properties": {
        "norad_id": 29992,
        "name": "FENGYUN 1C DEB",
        "group": "fengyun-1c-debris",
        "lat": -29.643915385714088,
        "lon": -1.0201795710420003,
        "alt_km": 921.3301963279009,
        "timestamp": "2025-12-25T03:55:56.630891+00:00",
        "meta_object_name": "FENGYUN 1C DEB",
        "meta_object_id": "1999-025LS",
        "meta_epoch": "2025-12-24T13:19:42.175200",
        "meta_mean_motion": 14.11615581,
        "meta_eccentricity": 0.0089413,
        "meta_inclination": 98.7308,
        "meta_ra_of_asc_node": 353.3707,
        "meta_arg_of_pericenter": 134.2818,
        "meta_mean_anomaly": 345.5468,
        "meta_ephemeris_type": 0,
        "meta_classification_type": "U",
        "meta_norad_cat_id": 29992,
        "meta_element_set_no": 999,
        "meta_rev_at_epoch": 97554,
        "meta_bstar": 6.1172e-05,
        "meta_mean_motion_dot": 7.3e-07,
        "meta_mean_motion_ddot": 0,
        "tle_line1": "1 29992U 99025LS  25358.55534925  .00000073  00000+0  61172-4 0  9997",
        "tle_line2": "2 29992  98.7308 353.3707 0089413 134.2818 345.5468 14.11615581975546"
      },
      "geometry": {
        "type": "Point",
        "coordinates": [
          -1.0201795710420003,
          -29.643915385714088
        ]
      }
    },
    {
      "type": "Feature",
      "properties": {
        "norad_id": 29993,
        "name": "FENGYUN 1C DEB",
        "group": "fengyun-1c-debris",
        "lat": 41.54993175549648,
        "lon": -136.53909450002695,
        "alt_km": 883.850178769565,
        "timestamp": "2025-12-25T03:55:56.630901+00:00",
        "meta_object_name": "FENGYUN 1C DEB",
        "meta_object_id": "1999-025LT",
        "meta_epoch": "2025-12-24T15:20:23.506080",
        "meta_mean_motion": 14.08152049,
        "meta_eccentricity": 0.0038268,
        "meta_inclination": 98.7919,
        "meta_ra_of_asc_node": 35.0662,
        "meta_arg_of_pericenter": 280.3846,
        "meta_mean_anomaly": 79.3011,
        "meta_ephemeris_type": 0,
        "meta_classification_type": "U",
        "meta_norad_cat_id": 29993,
        "meta_element_set_no": 999,
        "meta_rev_at_epoch": 97337,
        "meta_bstar": 1.1827e-05,
        "meta_mean_motion_dot": -2.3e-07,
        "meta_mean_motion_ddot": 0,
        "tle_line1": "1 29993U 99025LT  25358.63916095 -.00000023  00000+0  11827-4 0  9997",
        "tle_line2": "2 29993  98.7919  35.0662 0038268 280.3846  79.3011 14.08152049973371"
      },
      "geometry": {
        "type": "Point",
        "coordinates": [
          -136.53909450002695,
          41.54993175549648
        ]
      }
    }
  ]
}